{
  "type": "FeatureCollection",
  "features": [
    {
      "type": "Feature",
      "properties": {
        "norad_id": 44334,
        "name": "EUTELSAT 7C",
        "group": "eutelsat",
        "lat": -0.026284219526915082,
        "lon": 38.12342894448979,
        "alt_km": 35798.794376415266,
        "timestamp": "2025-12-11T20:41:14.758612+00:00",
        "meta_object_name": "EUTELSAT 7C",
        "meta_object_id": "2019-034B",
        "meta_epoch": "2025-12-11T13:32:29.890176",
        "meta_mean_motion": 1.00271297,
        "meta_eccentricity": 0.00032975,
        "meta_inclination": 0.0725,
        "meta_ra_of_asc_node": 179.0974,
        "meta_arg_of_pericenter": 64.396,
        "meta_mean_anomaly": 47.1384,
        "meta_ephemeris_type": 0,
        "meta_classification_type": "U",
        "meta_norad_cat_id": 44334,
        "meta_element_set_no": 999,
        "meta_rev_at_epoch": 495,
        "meta_bstar": 0,
        "meta_mean_motion_dot": 5.5e-07,
        "meta_mean_motion_ddot": 0,
        "tle_line1": "1 44334U 19034B   25345.56423484  .00000055  00000+0  00000+0 0  9998",
        "tle_line2": "2 44334   0.0725 179.0974 0003297  64.3960  47.1384  1.00271297  4954"
      },
      "geometry": {
        "type": "Point",
        "coordinates": [
          38.12342894448979,
          -0.026284219526915082
        ]
      }
    },
    {
      "type": "Feature",
      "properties": {
        "norad_id": 44624,
        "name": "EUTELSAT 5 WEST B",
        "group": "eutelsat",
        "lat": 0.05358111372036276,
        "lon": 26.154322195719182,
        "alt_km": 35794.41449980797,
        "timestamp": "2025-12-11T20:41:14.758624+00:00",
        "meta_object_name": "EUTELSAT 5 WEST B",
        "meta_object_id": "2019-067A",
        "meta_epoch": "2025-12-11T08:21:06.926976",
        "meta_mean_motion": 1.00271596,
        "meta_eccentricity": 0.00034153,
        "meta_inclination": 0.0628,
        "meta_ra_of_asc_node": 346.4733,
        "meta_arg_of_pericenter": 274.655,
        "meta_mean_anomaly": 299.4597,
        "meta_ephemeris_type": 0,
        "meta_classification_type": "U",
        "meta_norad_cat_id": 44624,
        "meta_element_set_no": 999,
        "meta_rev_at_epoch": 2255,
        "meta_bstar": 0,
        "meta_mean_motion_dot": -3.6e-07,
        "meta_mean_motion_ddot": 0,
        "tle_line1": "1 44624U 19067A   25345.34799684 -.00000036  00000+0  00000+0 0  9990",
        "tle_line2": "2 44624   0.0628 346.4733 0003415 274.6550 299.4597  1.00271596 22550"
      },
      "geometry": {
        "type": "Point",
        "coordinates": [
          26.154322195719182,
          0.05358111372036276
        ]
      }
    },
    {
      "type": "Feature",
      "properties": {
        "norad_id": 45027,
        "name": "EUTELSAT KONNECT",
        "group": "eutelsat",
        "lat": -0.0404231062627333,
        "lon": 38.330853570221294,
        "alt_km": 35789.29815540194,
        "timestamp": "2025-12-11T20:41:14.758636+00:00",
        "meta_object_name": "EUTELSAT KONNECT",
        "meta_object_id": "2020-005B",
        "meta_epoch": "2025-12-11T13:32:44.865888",
        "meta_mean_motion": 1.0026961,
        "meta_eccentricity": 0.00016021,
        "meta_inclination": 0.0703,
        "meta_ra_of_asc_node": 96.1722,
        "meta_arg_of_pericenter": 189.5531,
        "meta_mean_anomaly": 5.1776,
        "meta_ephemeris_type": 0,
        "meta_classification_type": "U",
        "meta_norad_cat_id": 45027,
        "meta_element_set_no": 999,
        "meta_rev_at_epoch": 2245,
        "meta_bstar": 0,
        "meta_mean_motion_dot": 5.6e-07,
        "meta_mean_motion_ddot": 0,
        "tle_line1": "1 45027U 20005B   25345.56440817  .00000056  00000+0  00000+0 0  9998",
        "tle_line2": "2 45027   0.0703  96.1722 0001602 189.5531   5.1776  1.00269610 22452"
      },
      "geometry": {
        "type": "Point",
        "coordinates": [
          38.330853570221294,
          -0.0404231062627333
        ]
      }
    },
    {
      "type": "Feature",
      "properties": {
        "norad_id": 49056,
        "name": "EUTELSAT QUANTUM",
        "group": "eutelsat",
        "lat": 0.028144340755576917,
        "lon": 78.83249973960905,
        "alt_km": 35801.011684539124,
        "timestamp": "2025-12-11T20:41:14.758647+00:00",
        "meta_object_name": "EUTELSAT QUANTUM",
        "meta_object_id": "2021-069B",
        "meta_epoch": "2025-12-11T13:44:21.254208",
        "meta_mean_motion": 1.00272079,
        "meta_eccentricity": 0.00036725,
        "meta_inclination": 0.0191,
        "meta_ra_of_asc_node": 30.9626,
        "meta_arg_of_pericenter": 242.3718,
        "meta_mean_anomaly": 60.9836,
        "meta_ephemeris_type": 0,
        "meta_classification_type": "U",
        "meta_norad_cat_id": 49056,
        "meta_element_set_no": 999,
        "meta_rev_at_epoch": 1604,
        "meta_bstar": 0,
        "meta_mean_motion_dot": 1.33e-06,
        "meta_mean_motion_ddot": 0,
        "tle_line1": "1 49056U 21069B   25345.57246822  .00000133  00000+0  00000+0 0  9992",
        "tle_line2": "2 49056   0.0191  30.9626 0003672 242.3718  60.9836  1.00272079 16049"
      },
      "geometry": {
        "type": "Point",
        "coordinates": [
          78.83249973960905,
          0.028144340755576917
        ]
      }
    },
    {
      "type": "Feature",
      "properties": {
        "norad_id": 53765,
        "name": "EUTELSAT KONNECT VHTS",
        "group": "eutelsat",
        "lat": -0.0438505186100639,
        "lon": 33.8400027628026,
        "alt_km": 35795.414156084385,
        "timestamp": "2025-12-11T20:41:14.758659+00:00",
        "meta_object_name": "EUTELSAT KONNECT VHTS",
        "meta_object_id": "2022-110A",
        "meta_epoch": "2025-12-11T03:15:06.233184",
        "meta_mean_motion": 1.00271355,
        "meta_eccentricity": 0.00024632,
        "meta_inclination": 0.0669,
        "meta_ra_of_asc_node": 100.3786,
        "meta_arg_of_pericenter": 140.773,
        "meta_mean_anomaly": 250.4291,
        "meta_ephemeris_type": 0,
        "meta_classification_type": "U",
        "meta_norad_cat_id": 53765,
        "meta_element_set_no": 999,
        "meta_rev_at_epoch": 494,
        "meta_bstar": 0,
        "meta_mean_motion_dot": 2.3e-07,
        "meta_mean_motion_ddot": 0,
        "tle_line1": "1 53765U 22110A   25345.13548881  .00000023  00000+0  00000+0 0  9992",
        "tle_line2": "2 53765   0.0669 100.3786 0002463 140.7730 250.4291  1.00271355  4945"
      },
      "geometry": {
        "type": "Point",
        "coordinates": [
          33.8400027628026,
          -0.0438505186100639
        ]
      }
    },
    {
      "type": "Feature",
      "properties": {
        "norad_id": 54048,
        "name": "EUTELSAT HOTBIRD 13F",
        "group": "eutelsat",
        "lat": 0.060478512132647815,
        "lon": 44.147669521971736,
        "alt_km": 35780.46568067466,
        "timestamp": "2025-12-11T20:41:14.758673+00:00",
        "meta_object_name": "EUTELSAT HOTBIRD 13F",
        "meta_object_id": "2022-134A",
        "meta_epoch": "2025-12-11T13:34:22.211040",
        "meta_mean_motion": 1.00269142,
        "meta_eccentricity": 0.00022034,
        "meta_inclination": 0.0491,
        "meta_ra_of_asc_node": 292.5693,
        "meta_arg_of_pericenter": 64.5898,
        "meta_mean_anomaly": 299.9666,
        "meta_ephemeris_type": 0,
        "meta_classification_type": "U",
        "meta_norad_cat_id": 54048,
        "meta_element_set_no": 999,
        "meta_rev_at_epoch": 1149,
        "meta_bstar": 0,
        "meta_mean_motion_dot": 9.4e-07,
        "meta_mean_motion_ddot": 0,
        "tle_line1": "1 54048U 22134A   25345.56553485  .00000094  00000+0  00000+0 0  9994",
        "tle_line2": "2 54048   0.0491 292.5693 0002203  64.5898 299.9666  1.00269142 11497"
      },
      "geometry": {
        "type": "Point",
        "coordinates": [
          44.147669521971736,
          0.060478512132647815
        ]
      }
    },
    {
      "type": "Feature",
      "properties": {
        "norad_id": 54225,
        "name": "EUTELSAT HOTBIRD 13G",
        "group": "eutelsat",
        "lat": 0.02561138494573378,
        "lon": 44.0985015003791,
        "alt_km": 35792.235957566365,
        "timestamp": "2025-12-11T20:41:14.758686+00:00",
        "meta_object_name": "EUTELSAT HOTBIRD 13G",
        "meta_object_id": "2022-146A",
        "meta_epoch": "2025-12-11T13:34:22.211040",
        "meta_mean_motion": 1.00270795,
        "meta_eccentricity": 0.0001868,
        "meta_inclination": 0.049,
        "meta_ra_of_asc_node": 235.0759,
        "meta_arg_of_pericenter": 307.7047,
        "meta_mean_anomaly": 114.3265,
        "meta_ephemeris_type": 0,
        "meta_classification_type": "U",
        "meta_norad_cat_id": 54225,
        "meta_element_set_no": 999,
        "meta_rev_at_epoch": 558,
        "meta_bstar": 0,
        "meta_mean_motion_dot": 9.4e-07,
        "meta_mean_motion_ddot": 0,
        "tle_line1": "1 54225U 22146A   25345.56553485  .00000094  00000+0  00000+0 0  9994",
        "tle_line2": "2 54225   0.0490 235.0759 0001868 307.7047 114.3265  1.00270795  5586"
      },
      "geometry": {
        "type": "Point",
        "coordinates": [
          44.0985015003791,
          0.02561138494573378
        ]
      }
    }
  ]
}